*******************************************************************************
 Revised: Aug 29, 2013                SEMB-L1                                31
                      (Sun & Earth-Moon Barycenter Lagrange 1)       

  #1) The Sun & Earth-Moon Barycenter Lagrange-1 point (SEMB-L1) is a location 
       where the Earth's gravitational field partially counters that of the 
       Sun.

  #2) This L1 point is about 1.5 million km (~900,000 miles) away from the 
       Earth in the direction of the Sun, or slightly less than one percent of 
       the way to the Sun (four times the distance from Earth to the Moon) 

  #3) The solar wind reaches L1 about an hour before it reaches Earth, making 
       it a good place to observe changes in solar activity before the change  
       propagates to the Earth. L1 provides an uninterrupted view of the Sun,
       being between the Earth and Sun.

  #4) L1 is an unstable equilibrium point. This means an object at that 
       location will remain there unless disturbed, whereupon it will move 
       away.  In practice, there will always be some disturbance. Further, 
       since the Sun is a radio source, communications with spacecraft at 
       L1 are difficult to pick out against the background noise. Thus, 
       spacecraft such as Genesis, WIND, SOHO, and ACE are placed in "halo" 
       orbits around the L1 point. SMART-1 flew through L1 prior to lunar 
       impact.

 Time-span available: 1900-Jan-01 to 2151-Jan-01
*******************************************************************************


*******************************************************************************
Ephemeris / WWW_USER Sun Jan 30 16:48:54 2022 Pasadena, USA      / Horizons
*******************************************************************************
Target body name: SEMB-L1 (31)                    {source: Sun-EMB_L1}
Center body name: Solar System Barycenter (0)     {source: DE441}
Center-site name: BODY CENTER
*******************************************************************************
Start time      : A.D. 2020-Jan-01 00:00:00.0000 TDB
Stop  time      : A.D. 2022-Jan-01 00:00:00.0000 TDB
Step-size       : 1440 minutes
*******************************************************************************
Center geodetic : 0.00000000,0.00000000,0.0000000 {E-lon(deg),Lat(deg),Alt(km)}
Center cylindric: 0.00000000,0.00000000,0.0000000 {E-lon(deg),Dxy(km),Dz(km)}
Center radii    : (undefined)                                                  
Output units    : AU-D
Output type     : GEOMETRIC cartesian states
Output format   : 2 (position and velocity)
Reference frame : ICRF
*******************************************************************************
JDTDB
   X     Y     Z
   VX    VY    VZ
*******************************************************************************
$$SOE
2459410.500000000 = A.D. 2021-Jul-15 00:00:00.0000 TDB 
 X = 3.764988579386369E-01 Y =-8.490170284221868E-01 Z =-3.678895155011567E-01
 VX= 1.545849880082531E-02 VY= 5.903259617648803E-03 VZ= 2.559188835498825E-03
2459411.500000000 = A.D. 2021-Jul-16 00:00:00.0000 TDB 
 X = 3.919024909900274E-01 Y =-8.429938369439721E-01 Z =-3.652783365758511E-01
 VX= 1.534804094028512E-02 VY= 6.142846013409682E-03 VZ= 2.663048797882981E-03
2459412.500000000 = A.D. 2021-Jul-17 00:00:00.0000 TDB 
 X = 4.071934918662707E-01 Y =-8.367319018069019E-01 Z =-3.625636630046324E-01
 VX= 1.523323925636438E-02 VY= 6.380736186872044E-03 VZ= 2.766173467866417E-03
2459413.500000000 = A.D. 2021-Jul-18 00:00:00.0000 TDB 
 X = 4.223675313384888E-01 Y =-8.302329514166424E-01 Z =-3.597462440314057E-01
 VX= 1.511412311497443E-02 VY= 6.616865833774604E-03 VZ= 2.868534969477273E-03
2459414.500000000 = A.D. 2021-Jul-19 00:00:00.0000 TDB 
 X = 4.374203100739423E-01 Y =-8.234987782938273E-01 Z =-3.568268566941168E-01
 VX= 1.499072294197952E-02 VY= 6.851171030302323E-03 VZ= 2.970105591422907E-03
2459415.500000000 = A.D. 2021-Jul-20 00:00:00.0000 TDB 
 X = 4.523475596944150E-01 Y =-8.165312386880869E-01 Z =-3.538063056576338E-01
 VX= 1.486307021998973E-02 VY= 7.083588244094661E-03 VZ= 3.070857791960603E-03
2459416.500000000 = A.D. 2021-Jul-21 00:00:00.0000 TDB 
 X = 4.671450438311475E-01 Y =-8.093322521811344E-01 Z =-3.506854230417631E-01
 VX= 1.473119748463452E-02 VY= 7.314054345182440E-03 VZ= 3.170764203776128E-03
2459417.500000000 = A.D. 2021-Jul-22 00:00:00.0000 TDB 
 X = 4.818085591757225E-01 Y =-8.019038012788032E-01 Z =-3.474650682443335E-01
 VX= 1.459513832018403E-02 VY= 7.542506617203990E-03 VZ= 3.269797638990410E-03
2459418.500000000 = A.D. 2021-Jul-23 00:00:00.0000 TDB 
 X = 4.963339365262472E-01 Y =-7.942479309915952E-01 Z =-3.441461277591651E-01
 VX= 1.445492735453407E-02 VY= 7.768882769216061E-03 VZ= 3.367931094394535E-03
2459419.500000000 = A.D. 2021-Jul-24 00:00:00.0000 TDB 
 X = 5.107170418282641E-01 Y =-7.863667484030340E-01 Z =-3.407295149886672E-01
 VX= 1.431060025371885E-02 VY= 7.993120948282743E-03 VZ= 3.465137756961631E-03
2459420.500000000 = A.D. 2021-Jul-25 00:00:00.0000 TDB 
 X = 5.249537772100483E-01 Y =-7.782624222250368E-01 Z =-3.372161700507881E-01
 VX= 1.416219371622074E-02 VY= 8.215159752837370E-03 VZ= 3.561391009619744E-03
2459421.500000000 = A.D. 2021-Jul-26 00:00:00.0000 TDB 
 X = 5.390400820122386E-01 Y =-7.699371823396127E-01 Z =-3.336070595800962E-01
 VX= 1.400974546737303E-02 VY= 8.434938246613493E-03 VZ= 3.656664437202566E-03
2459422.500000000 = A.D. 2021-Jul-27 00:00:00.0000 TDB 
 X = 5.529719338120213E-01 Y =-7.613933193264935E-01 Z =-3.299031765228698E-01
 VX= 1.385329425409649E-02 VY= 8.652395972787498E-03 VZ= 3.750931832453708E-03
2459423.500000000 = A.D. 2021-Jul-28 00:00:00.0000 TDB 
 X = 5.667453494422665E-01 Y =-7.526331839766710E-01 Z =-3.261055399262108E-01
 VX= 1.369287984006551E-02 VY= 8.867472967965504E-03 VZ= 3.844167201961067E-03
2459424.500000000 = A.D. 2021-Jul-29 00:00:00.0000 TDB 
 X = 5.803563860060074E-01 Y =-7.436591867921120E-01 Z =-3.222151947212838E-01
 VX= 1.352854300119112E-02 VY= 9.080109775851936E-03 VZ= 3.936344771975413E-03
2459425.500000000 = A.D. 2021-Jul-30 00:00:00.0000 TDB 
 X = 5.938011418864968E-01 Y =-7.344737974719744E-01 Z =-3.182332115007940E-01
 VX= 1.336032552131179E-02 VY= 9.290247460497020E-03 VZ= 4.027438994086515E-03
2459426.500000000 = A.D. 2021-Jul-31 00:00:00.0000 TDB 
 X = 6.070757577530345E-01 Y =-7.250795443858674E-01 Z =-3.141606862908851E-01
 VX= 1.318827018795425E-02 VY= 9.497827619081970E-03 VZ= 4.117424550751741E-03
2459427.500000000 = A.D. 2021-Aug-01 00:00:00.0000 TDB 
 X = 6.201764175624709E-01 Y =-7.154790140344169E-01 Z =-3.099987403175319E-01
 VX= 1.301242078795239E-02 VY= 9.702792394447013E-03 VZ= 4.206276360750145E-03
2459428.500000000 = A.D. 2021-Aug-02 00:00:00.0000 TDB 
 X = 6.330993495562455E-01 Y =-7.056748504974433E-01 Z =-3.057485197675200E-01
 VX= 1.283282210286543E-02 VY= 9.905084487409321E-03 VZ= 4.293969584579783E-03
2459429.500000000 = A.D. 2021-Aug-03 00:00:00.0000 TDB 
 X = 6.458408272527018E-01 Y =-6.956697548698625E-01 Z =-3.014111955440346E-01
 VX= 1.264951990410076E-02 VY= 1.010464716899401E-02 VZ= 4.380479629839173E-03
2459430.500000000 = A.D. 2021-Aug-04 00:00:00.0000 TDB 
 X = 6.583971704343504E-01 Y =-6.854664846853668E-01 Z =-2.969879630168669E-01
 VX= 1.246256094768053E-02 VY= 1.030142429266884E-02 VZ= 4.465782156620014E-03
2459431.500000000 = A.D. 2021-Aug-05 00:00:00.0000 TDB 
 X = 6.707647461297012E-01 Y =-6.750678533278297E-01 Z =-2.924800417672085E-01
 VX= 1.227199296860731E-02 VY= 1.049536030666967E-02 VZ= 4.549853082939039E-03
2459432.500000000 = A.D. 2021-Aug-06 00:00:00.0000 TDB 
 X = 6.829399695892457E-01 Y =-6.644767294303071E-01 Z =-2.878886753269869E-01
 VX= 1.207786467479029E-02 VY= 1.068640026649726E-02 VZ= 4.632668590229864E-03
2459433.500000000 = A.D. 2021-Aug-07 00:00:00.0000 TDB 
 X = 6.949193052551302E-01 Y =-6.536960362614221E-01 Z =-2.832151309126673E-01
 VX= 1.188022574049847E-02 VY= 1.087448984766585E-02 VZ= 4.714205128920849E-03
2459434.500000000 = A.D. 2021-Aug-08 00:00:00.0000 TDB 
 X = 7.066992677240440E-01 Y =-6.427287510988414E-01 Z =-2.784606991534244E-01
 VX= 1.167912679934159E-02 VY= 1.105957535878753E-02 VZ= 4.794439424123661E-03
2459435.500000000 = A.D. 2021-Aug-09 00:00:00.0000 TDB 
 X = 7.182764227028687E-01 Y =-6.315779045894688E-01 Z =-2.736266938135600E-01
 VX= 1.147461943682199E-02 VY= 1.124160375505899E-02 VZ= 4.873348481454614E-03
2459436.500000000 = A.D. 2021-Aug-10 00:00:00.0000 TDB 
 X = 7.296473879567054E-01 Y =-6.202465800959390E-01 Z =-2.687144515090281E-01
 VX= 1.126675618256036E-02 VY= 1.142052265217604E-02 VZ= 4.950909592998922E-03
2459437.500000000 = A.D. 2021-Aug-11 00:00:00.0000 TDB 
 X = 7.408088342490273E-01 Y =-6.087379130289943E-01 Z =-2.637253314179261E-01
 VX= 1.105559050235347E-02 VY= 1.159628034063986E-02 VZ= 5.027100343410452E-03
2459438.500000000 = A.D. 2021-Aug-12 00:00:00.0000 TDB 
 X = 7.517574862738894E-01 Y =-5.970550901654024E-01 Z =-2.586607149848320E-01
 VX= 1.084117679026206E-02 VY= 1.176882580034425E-02 VZ= 5.101898616115190E-03
2459439.500000000 = A.D. 2021-Aug-13 00:00:00.0000 TDB 
 X = 7.624901235803222E-01 Y =-5.852013489512204E-01 Z =-2.535220056189061E-01
 VX= 1.062357036092251E-02 VY= 1.193810871526072E-02 VZ= 5.175282599564465E-03
2459440.500000000 = A.D. 2021-Aug-14 00:00:00.0000 TDB 
 X = 7.730035814892047E-01 Y =-5.731799767904180E-01 Z =-2.483106283857455E-01
 VX= 1.040282744219955E-02 VY= 1.210407948799659E-02 VZ= 5.247230793466612E-03
2459441.500000000 = A.D. 2021-Aug-15 00:00:00.0000 TDB 
 X = 7.832947520029668E-01 Y =-5.609943103190934E-01 Z =-2.430280296930464E-01
 VX= 1.017900516819925E-02 VY= 1.226668925402448E-02 VZ= 5.317722014929313E-03
2459442.500000000 = A.D. 2021-Aug-16 00:00:00.0000 TDB 
 X = 7.933605847084568E-01 Y =-5.486477346656815E-01 Z =-2.376756769701880E-01
 VX= 9.952161572524551E-03 VY= 1.242588989544740E-02 VZ= 5.386735404464871E-03
